{"type":"FeatureCollection","source":"https://overpass-api.de/api/interpreter, https://overpass.kumi.systems/api/interpreter — nwr boundary=administrative admin_level=9|7 dentro area(3601543125) = relazione 1543125 (東京都)","verified":"2026-09-06","admin_level":7,"simplify_m":20.0,"simplify2_m":30.0,"deviazione_massima_m":50.0,"bbox":[139.5629,35.48166,139.91889,35.81738],"features":[{"type":"Feature","bbox":[139.73013,35.66863,139.78285,35.70523],"properties":{"ku":"chiyoda","name":"Chiyoda-ku","name_local":"千代田区","osm":1761742},"geometry":{"type":"Polygon","coordinates":[[[139.76996,35.70523],[139.77327,35.70501],[139.77301,35.70286],[139.77369,35.7028],[139.77339,35.70175],[139.77565,35.70152],[139.77557,35.70059],[139.78056,35.70015],[139.78016,35.69784],[139.78285,35.69763],[139.78269,35.69618],[139.78175,35.6963],[139.7816,35.69525],[139.78285,35.69513],[139.78276,35.69466],[139.78029,35.69284],[139.77994,35.6932],[139.77661,35.69146],[139.76793,35.68859],[139.77039,35.68624],[139.77104,35.68486],[139.77094,35.6838],[139.767,35.67744],[139.76734,35.67737],[139.7671,35.67702],[139.76389,35.67335],[139.76064,35.67233],[139.75856,35.66863],[139.75271,35.67048],[139.7521,35.67063],[139.7518,35.67015],[139.74948,35.67093],[139.74761,35.6696],[139.74497,35.67068],[139.74503,35.67101],[139.74313,35.67137],[139.73892,35.67374],[139.73656,35.67881],[139.73367,35.67898],[139.73177,35.68144],[139.73013,35.68502],[139.73131,35.68876],[139.7324,35.69001],[139.73782,35.69345],[139.74303,35.70011],[139.74347,35.70012],[139.74431,35.70136],[139.74361,35.70169],[139.74443,35.70247],[139.74911,35.70293],[139.75744,35.7016],[139.7613,35.70156],[139.76346,35.70026],[139.76643,35.69953],[139.76728,35.70013],[139.76832,35.69949],[139.76867,35.70054],[139.76715,35.70094],[139.76621,35.70182],[139.76656,35.7027],[139.76815,35.70262],[139.76802,35.70332],[139.76932,35.7033],[139.76986,35.70371],[139.76996,35.70523]]]}},{"type":"Feature","bbox":[139.75856,35.6402,139.79315,35.69661],"properties":{"ku":"chuo","name":"Chuo-ku","name_local":"中央区","osm":1758897},"geometry":{"type":"Polygon","coordinates":[[[139.78881,35.66341],[139.78808,35.66889],[139.78657,35.67287],[139.78679,35.67414],[139.7878,35.67692],[139.79268,35.68354],[139.79315,35.68503],[139.792,35.68779],[139.79019,35.68948],[139.78905,35.69141],[139.7889,35.6948],[139.78273,35.69661],[139.78269,35.69618],[139.78175,35.6963],[139.7816,35.69525],[139.78285,35.69513],[139.78276,35.69466],[139.78029,35.69284],[139.77994,35.6932],[139.77661,35.69146],[139.76793,35.68859],[139.77039,35.68624],[139.77104,35.68486],[139.77094,35.6838],[139.767,35.67744],[139.76734,35.67737],[139.7671,35.67702],[139.76389,35.67335],[139.76064,35.67233],[139.75856,35.66863],[139.7622,35.66698],[139.76314,35.66549],[139.76319,35.66399],[139.75952,35.659],[139.76596,35.65548],[139.7641,35.64826],[139.76817,35.6402],[139.78977,35.65418],[139.78881,35.66341]]]}},{"type":"Feature","bbox":[139.70874,35.62304,139.78293,35.68263],"properties":{"ku":"minato","name":"Minato-ku","name_local":"港区","osm":1761717},"geometry":{"type":"Polygon","coordinates":[[[139.72231,35.65074],[139.72284,35.64785],[139.72393,35.64673],[139.72315,35.64549],[139.72281,35.64554],[139.72273,35.64464],[139.72097,35.64413],[139.72138,35.64373],[139.71923,35.64162],[139.71939,35.6412],[139.71769,35.64069],[139.71783,35.64004],[139.71676,35.63991],[139.71704,35.63967],[139.71668,35.63792],[139.71732,35.63796],[139.71794,35.63614],[139.71735,35.63514],[139.7178,35.63478],[139.71798,35.63524],[139.71933,35.63533],[139.7198,35.63434],[139.72164,35.63547],[139.72214,35.63539],[139.72223,35.6359],[139.72621,35.63489],[139.72679,35.6342],[139.72634,35.633],[139.72687,35.63189],[139.72748,35.63184],[139.72804,35.63315],[139.72871,35.63293],[139.72822,35.63187],[139.72903,35.6313],[139.72935,35.63149],[139.73108,35.62996],[139.73148,35.62806],[139.73087,35.62766],[139.73087,35.62664],[139.73194,35.62599],[139.73192,35.62542],[139.73229,35.62595],[139.7338,35.62598],[139.73531,35.62304],[139.73823,35.62368],[139.73801,35.62495],[139.73945,35.62415],[139.74347,35.62511],[139.74428,35.62339],[139.74644,35.62313],[139.75122,35.62527],[139.75272,35.62532],[139.75266,35.62421],[139.75348,35.62406],[139.75768,35.6243],[139.75754,35.62774],[139.75943,35.62777],[139.76609,35.62777],[139.76603,35.62724],[139.76671,35.62751],[139.76879,35.62647],[139.77122,35.62354],[139.77402,35.62561],[139.78293,35.6305],[139.77703,35.63758],[139.76817,35.6402],[139.7641,35.64826],[139.76596,35.65548],[139.75952,35.659],[139.76319,35.66399],[139.76323,35.66522],[139.76237,35.66681],[139.75869,35.6686],[139.7521,35.67063],[139.7518,35.67015],[139.74948,35.67093],[139.74761,35.6696],[139.74497,35.67068],[139.74503,35.67101],[139.74313,35.67137],[139.73892,35.67374],[139.73656,35.67881],[139.73367,35.67898],[139.73199,35.68131],[139.73079,35.68111],[139.73,35.68249],[139.72813,35.68263],[139.72644,35.67974],[139.72414,35.67868],[139.72274,35.6792],[139.72136,35.67886],[139.71978,35.67916],[139.71974,35.67841],[139.71916,35.67857],[139.71986,35.67534],[139.71865,35.67401],[139.71627,35.67322],[139.71648,35.67215],[139.71484,35.67295],[139.714,35.67036],[139.71509,35.66964],[139.7144,35.66923],[139.71392,35.66942],[139.70874,35.66418],[139.71038,35.66303],[139.71219,35.66082],[139.71397,35.65974],[139.71339,35.65867],[139.71262,35.65859],[139.7146,35.65722],[139.71793,35.65641],[139.71824,35.65707],[139.72208,35.65575],[139.72296,35.65637],[139.72166,35.65365],[139.72197,35.6526],[139.72162,35.65236],[139.72221,35.65234],[139.72231,35.65074]]]}},{"type":"Feature","bbox":[139.67327,35.67322,139.74514,35.7299],"properties":{"ku":"shinjuku","name":"Shinjuku-ku","name_local":"新宿区","osm":1758858},"geometry":{"type":"Polygon","coordinates":[[[139.73555,35.70923],[139.73531,35.70814],[139.73428,35.70829],[139.73407,35.7078],[139.73249,35.70749],[139.73135,35.70809],[139.73157,35.70938],[139.72841,35.70923],[139.72795,35.70941],[139.72793,35.70991],[139.72666,35.71011],[139.72585,35.70928],[139.72525,35.70946],[139.72537,35.70977],[139.72372,35.70996],[139.72335,35.711],[139.72205,35.71156],[139.72243,35.7123],[139.72054,35.71257],[139.72084,35.7128],[139.72025,35.7123],[139.71986,35.71231],[139.71961,35.71302],[139.7193,35.71248],[139.71841,35.7125],[139.71575,35.71365],[139.7155,35.71313],[139.71465,35.71311],[139.71195,35.7148],[139.71108,35.71454],[139.71031,35.71356],[139.70943,35.71392],[139.70605,35.71353],[139.70522,35.71391],[139.70578,35.71403],[139.70558,35.71447],[139.70419,35.71477],[139.70475,35.71647],[139.70548,35.71633],[139.70539,35.71678],[139.70565,35.71666],[139.70577,35.71857],[139.70453,35.72013],[139.70472,35.72086],[139.70582,35.72148],[139.7043,35.72222],[139.70469,35.72279],[139.69991,35.7235],[139.69951,35.72279],[139.69797,35.72213],[139.68968,35.72281],[139.68439,35.72269],[139.68421,35.72376],[139.6822,35.72389],[139.68121,35.72739],[139.67682,35.7299],[139.67676,35.72771],[139.67535,35.72415],[139.67571,35.72138],[139.67457,35.72138],[139.67434,35.72042],[139.67354,35.72061],[139.67327,35.71966],[139.67378,35.71927],[139.67344,35.71848],[139.67528,35.71908],[139.6753,35.72004],[139.67566,35.71964],[139.67683,35.71956],[139.67833,35.71817],[139.67892,35.71813],[139.67953,35.71633],[139.67918,35.71477],[139.67996,35.71417],[139.6803,35.71457],[139.68087,35.7145],[139.68081,35.71402],[139.68184,35.71413],[139.68099,35.71327],[139.68203,35.7133],[139.68003,35.71105],[139.68177,35.71078],[139.68276,35.71001],[139.68835,35.71119],[139.69013,35.7113],[139.69007,35.71079],[139.69111,35.71049],[139.69155,35.71103],[139.69254,35.71058],[139.69271,35.71117],[139.69429,35.71103],[139.69311,35.70968],[139.68831,35.70693],[139.6874,35.70283],[139.68831,35.69896],[139.6854,35.69399],[139.68354,35.69257],[139.68374,35.69211],[139.68448,35.69216],[139.68422,35.69181],[139.68487,35.69144],[139.68316,35.68863],[139.68403,35.68743],[139.68574,35.68777],[139.68563,35.68649],[139.68468,35.68633],[139.68477,35.68586],[139.68582,35.68348],[139.68744,35.68172],[139.69461,35.68664],[139.69951,35.68867],[139.69985,35.68847],[139.69973,35.68877],[139.70215,35.68934],[139.70194,35.68832],[139.70279,35.6879],[139.70554,35.68783],[139.70681,35.68618],[139.70701,35.68464],[139.71127,35.68334],[139.71371,35.68168],[139.7145,35.68075],[139.71272,35.67636],[139.7127,35.67442],[139.71485,35.6749],[139.71507,35.67391],[139.71627,35.67322],[139.71865,35.67401],[139.71986,35.67534],[139.71916,35.67857],[139.71974,35.67841],[139.71978,35.67916],[139.72136,35.67886],[139.72274,35.6792],[139.72414,35.67868],[139.72599,35.67944],[139.72815,35.68265],[139.73,35.68249],[139.73079,35.68111],[139.73177,35.68144],[139.73013,35.68502],[139.73131,35.68876],[139.7324,35.69001],[139.73782,35.69345],[139.74303,35.70011],[139.74347,35.70012],[139.74431,35.70136],[139.74361,35.70169],[139.74443,35.70247],[139.74514,35.70253],[139.74304,35.70805],[139.73555,35.70923]]]}},{"type":"Feature","bbox":[139.71726,35.69949,139.77246,35.73591],"properties":{"ku":"bunkyo","name":"Bunkyō-ku","name_local":"文京区","osm":1758878},"geometry":{"type":"Polygon","coordinates":[[[139.76227,35.70124],[139.74911,35.70293],[139.74514,35.70253],[139.74342,35.70758],[139.74276,35.70817],[139.73555,35.70923],[139.73531,35.70814],[139.73428,35.70829],[139.73407,35.7078],[139.73249,35.70749],[139.73135,35.70809],[139.73157,35.70938],[139.72841,35.70923],[139.72795,35.70941],[139.72793,35.70991],[139.72666,35.71011],[139.72585,35.70928],[139.72525,35.70946],[139.72537,35.70977],[139.72372,35.70996],[139.72335,35.711],[139.72205,35.71156],[139.72243,35.7123],[139.7221,35.71262],[139.7203,35.71366],[139.71726,35.71461],[139.71796,35.71695],[139.71773,35.71736],[139.71827,35.71796],[139.71927,35.71752],[139.71955,35.71833],[139.72278,35.71894],[139.72311,35.71975],[139.72416,35.72005],[139.72505,35.71979],[139.72323,35.7223],[139.72268,35.72503],[139.72442,35.72543],[139.72438,35.72605],[139.72536,35.7261],[139.72468,35.72666],[139.72617,35.72651],[139.72636,35.72707],[139.72934,35.72554],[139.72991,35.72627],[139.73115,35.72437],[139.73196,35.72411],[139.73242,35.72425],[139.7322,35.72466],[139.73292,35.7248],[139.73301,35.72534],[139.73335,35.72504],[139.734,35.72552],[139.73558,35.72493],[139.7361,35.72521],[139.73536,35.72607],[139.73744,35.72686],[139.73677,35.72736],[139.73714,35.72756],[139.73681,35.72812],[139.7355,35.72925],[139.73674,35.73018],[139.73642,35.73052],[139.7388,35.73198],[139.74076,35.73022],[139.7417,35.73075],[139.74127,35.73116],[139.74343,35.7327],[139.74232,35.73356],[139.74304,35.73471],[139.74529,35.73591],[139.74761,35.73517],[139.74783,35.73472],[139.74744,35.7346],[139.74824,35.73349],[139.74893,35.73353],[139.74856,35.73308],[139.74895,35.73283],[139.7503,35.73348],[139.75062,35.73395],[139.7503,35.73438],[139.75266,35.73527],[139.76015,35.73171],[139.76135,35.73239],[139.76376,35.72973],[139.76484,35.72762],[139.76355,35.72158],[139.7679,35.7173],[139.76875,35.71573],[139.7677,35.71565],[139.76678,35.7168],[139.76598,35.7165],[139.76493,35.71752],[139.76444,35.71721],[139.7653,35.71677],[139.76595,35.7157],[139.76564,35.71354],[139.76779,35.71258],[139.76763,35.71147],[139.76685,35.7113],[139.7681,35.71104],[139.7681,35.71034],[139.76664,35.71039],[139.76676,35.70939],[139.76717,35.70919],[139.76659,35.70919],[139.76688,35.70868],[139.76659,35.70863],[139.77147,35.70914],[139.77155,35.70829],[139.77246,35.70814],[139.7723,35.70717],[139.77008,35.70735],[139.76986,35.70371],[139.76932,35.7033],[139.76802,35.70332],[139.76815,35.70262],[139.76656,35.7027],[139.76621,35.70182],[139.76695,35.70105],[139.76867,35.70054],[139.76832,35.69949],[139.76728,35.70013],[139.76643,35.69953],[139.76346,35.70026],[139.76227,35.70124]]]}},{"type":"Feature","bbox":[139.7623,35.6948,139.8098,35.73162],"properties":{"ku":"taito","name":"Taito-ku","name_local":"台東区","osm":1758888},"geometry":{"type":"Polygon","coordinates":[[[139.76493,35.71752],[139.76598,35.7165],[139.76678,35.7168],[139.7677,35.71565],[139.76875,35.71573],[139.7679,35.7173],[139.76342,35.7219],[139.76484,35.72762],[139.7623,35.73162],[139.7651,35.73026],[139.76561,35.72949],[139.76579,35.72769],[139.76724,35.72732],[139.76993,35.72813],[139.77227,35.72682],[139.77297,35.72596],[139.77412,35.72659],[139.77656,35.72535],[139.7795,35.72483],[139.78128,35.72478],[139.78128,35.72529],[139.78215,35.72554],[139.78229,35.7265],[139.78301,35.72665],[139.78375,35.7276],[139.78786,35.72781],[139.78907,35.72832],[139.79152,35.73131],[139.79248,35.73087],[139.79273,35.73008],[139.79428,35.73034],[139.79433,35.72979],[139.79508,35.7298],[139.79517,35.72892],[139.80143,35.72917],[139.8098,35.72803],[139.80936,35.724],[139.80732,35.71813],[139.798,35.70903],[139.79659,35.70712],[139.79373,35.70135],[139.7889,35.6948],[139.78273,35.69661],[139.78285,35.69763],[139.78016,35.69784],[139.78056,35.70015],[139.77557,35.70059],[139.77565,35.70152],[139.77339,35.70175],[139.77369,35.7028],[139.77301,35.70286],[139.77327,35.70501],[139.76996,35.70523],[139.77008,35.70735],[139.7723,35.70717],[139.77245,35.70831],[139.77155,35.70829],[139.77147,35.70914],[139.76659,35.70863],[139.76688,35.70868],[139.76659,35.70919],[139.76717,35.70919],[139.76676,35.70939],[139.76664,35.71039],[139.76804,35.71026],[139.7681,35.71104],[139.76685,35.7113],[139.76763,35.71147],[139.76771,35.7128],[139.76564,35.71354],[139.76602,35.71547],[139.7653,35.71677],[139.76444,35.71721],[139.76493,35.71752]]]}},{"type":"Feature","bbox":[139.7889,35.6867,139.84284,35.74351],"properties":{"ku":"sumida","name":"Sumida-ku","name_local":"墨田区","osm":1758891},"geometry":{"type":"Polygon","coordinates":[[[139.80058,35.68814],[139.79957,35.68992],[139.79677,35.68853],[139.7964,35.68992],[139.79349,35.69016],[139.79345,35.69072],[139.79239,35.69067],[139.79262,35.69036],[139.79047,35.68921],[139.78905,35.69141],[139.7889,35.6948],[139.79373,35.70135],[139.79659,35.70712],[139.798,35.70903],[139.80732,35.71813],[139.80936,35.724],[139.81005,35.73028],[139.81167,35.73339],[139.81448,35.73652],[139.81446,35.73945],[139.81574,35.74007],[139.8179,35.74257],[139.8203,35.74351],[139.82537,35.73545],[139.84284,35.71902],[139.8392,35.7168],[139.83729,35.71792],[139.83499,35.71778],[139.83319,35.71581],[139.83333,35.71453],[139.83453,35.71304],[139.83939,35.7109],[139.83978,35.7099],[139.83464,35.7056],[139.8344,35.70451],[139.83545,35.70318],[139.83487,35.70294],[139.83079,35.70301],[139.81864,35.70809],[139.81965,35.69333],[139.81324,35.69297],[139.81331,35.69218],[139.81137,35.69207],[139.81173,35.68878],[139.80942,35.68859],[139.80956,35.68694],[139.80485,35.6867],[139.8047,35.68835],[139.80058,35.68814]]]}},{"type":"Feature","bbox":[139.76672,35.58865,139.84854,35.70809],"properties":{"ku":"koto","name":"Koto-ku","name_local":"江東区","osm":3554015},"geometry":{"type":"Polygon","coordinates":[[[139.78881,35.66341],[139.78808,35.66889],[139.78657,35.67287],[139.78679,35.67414],[139.7878,35.67692],[139.79268,35.68354],[139.79315,35.68503],[139.792,35.68779],[139.79047,35.68921],[139.79262,35.69036],[139.79239,35.69067],[139.79345,35.69072],[139.79349,35.69016],[139.7964,35.68992],[139.79668,35.68855],[139.79957,35.68992],[139.80058,35.68814],[139.8047,35.68835],[139.80485,35.6867],[139.80956,35.68694],[139.80942,35.68859],[139.81173,35.68878],[139.81137,35.69207],[139.81331,35.69218],[139.81324,35.69297],[139.81965,35.69333],[139.81864,35.70809],[139.83079,35.70301],[139.83545,35.70318],[139.84439,35.69918],[139.84648,35.69699],[139.8478,35.6947],[139.84806,35.69194],[139.84768,35.68859],[139.84602,35.68383],[139.84677,35.68299],[139.84564,35.68122],[139.84579,35.68072],[139.84854,35.67965],[139.84701,35.67505],[139.84573,35.6587],[139.84647,35.65438],[139.84464,35.63299],[139.84248,35.59153],[139.83476,35.60114],[139.81171,35.58865],[139.80444,35.59768],[139.78857,35.58887],[139.78703,35.58938],[139.78445,35.5913],[139.78261,35.59419],[139.78181,35.59684],[139.77183,35.60881],[139.76672,35.61663],[139.77365,35.62036],[139.77122,35.62354],[139.77402,35.62561],[139.78293,35.6305],[139.77703,35.63758],[139.76817,35.6402],[139.78977,35.65418],[139.78881,35.66341]]]}},{"type":"Feature","bbox":[139.69519,35.58449,139.7799,35.64159],"properties":{"ku":"shinagawa","name":"Shinagawa-ku","name_local":"品川区","osm":3554304},"geometry":{"type":"Polygon","coordinates":[[[139.71452,35.6292],[139.70984,35.62677],[139.70771,35.62612],[139.70732,35.62555],[139.70407,35.62477],[139.70384,35.62536],[139.70247,35.62486],[139.7022,35.62569],[139.70086,35.62613],[139.69622,35.62495],[139.70106,35.62358],[139.70398,35.62202],[139.70381,35.62165],[139.70285,35.6216],[139.70243,35.62036],[139.69832,35.61524],[139.69638,35.61436],[139.6958,35.61359],[139.69589,35.60981],[139.6956,35.60816],[139.69519,35.60811],[139.69741,35.60457],[139.70087,35.6016],[139.71194,35.60081],[139.71487,35.59991],[139.71462,35.59917],[139.71403,35.59915],[139.71452,35.59743],[139.71758,35.59651],[139.71727,35.59584],[139.71925,35.59261],[139.71893,35.59245],[139.71915,35.59202],[139.72028,35.59259],[139.72099,35.59443],[139.72653,35.59413],[139.72808,35.59455],[139.72893,35.59388],[139.72917,35.59272],[139.73039,35.59216],[139.72925,35.58959],[139.72988,35.58946],[139.72939,35.58838],[139.72991,35.58728],[139.73577,35.58724],[139.73577,35.58793],[139.73805,35.58811],[139.73826,35.58773],[139.74797,35.59059],[139.74849,35.58886],[139.75051,35.5893],[139.75055,35.58988],[139.75526,35.58972],[139.75542,35.58449],[139.7629,35.58467],[139.76233,35.59495],[139.76534,35.59489],[139.7671,35.59253],[139.7799,35.59902],[139.77183,35.60881],[139.76672,35.61663],[139.77365,35.62036],[139.76879,35.62647],[139.76671,35.62751],[139.76625,35.62718],[139.76589,35.62741],[139.76609,35.62777],[139.75754,35.62774],[139.75768,35.6243],[139.75348,35.62406],[139.75266,35.62421],[139.75272,35.62532],[139.75122,35.62527],[139.74644,35.62313],[139.74428,35.62339],[139.74347,35.62511],[139.73945,35.62415],[139.73801,35.62495],[139.73823,35.62368],[139.73531,35.62304],[139.7338,35.62598],[139.73229,35.62595],[139.73192,35.62542],[139.73194,35.62599],[139.73087,35.62664],[139.73087,35.62766],[139.73148,35.62806],[139.73108,35.62996],[139.72935,35.63149],[139.72903,35.6313],[139.72822,35.63187],[139.72871,35.63293],[139.72804,35.63315],[139.72748,35.63184],[139.72687,35.63189],[139.72634,35.633],[139.72679,35.6342],[139.72621,35.63489],[139.72223,35.6359],[139.72214,35.63539],[139.72164,35.63547],[139.7198,35.63434],[139.71933,35.63533],[139.71798,35.63524],[139.7178,35.63478],[139.71735,35.63514],[139.71794,35.63614],[139.71732,35.63796],[139.71668,35.63792],[139.71704,35.63967],[139.71676,35.63991],[139.71783,35.64004],[139.71769,35.64069],[139.71939,35.6412],[139.71897,35.64159],[139.71775,35.64158],[139.71559,35.64064],[139.71396,35.6381],[139.7132,35.63863],[139.71384,35.63809],[139.71333,35.63752],[139.71391,35.63599],[139.71341,35.63553],[139.71463,35.63426],[139.7141,35.63292],[139.71466,35.63195],[139.71427,35.63156],[139.71521,35.63001],[139.71422,35.62961],[139.71452,35.6292]]]}},{"type":"Feature","bbox":[139.66161,35.60062,139.71775,35.66411],"properties":{"ku":"meguro","name":"Meguro-ku","name_local":"目黒区","osm":1758936},"geometry":{"type":"Polygon","coordinates":[[[139.71452,35.6292],[139.70984,35.62677],[139.70771,35.62612],[139.70732,35.62555],[139.70407,35.62477],[139.70384,35.62536],[139.70247,35.62486],[139.7022,35.62569],[139.70086,35.62613],[139.69622,35.62495],[139.70106,35.62358],[139.70396,35.62186],[139.70285,35.6216],[139.70243,35.62036],[139.69832,35.61524],[139.69638,35.61436],[139.6958,35.61359],[139.69557,35.61198],[139.69598,35.61075],[139.6956,35.60816],[139.69519,35.60811],[139.6939,35.60948],[139.69142,35.61109],[139.68616,35.61169],[139.68421,35.61308],[139.68518,35.60689],[139.6843,35.60224],[139.68308,35.60258],[139.68285,35.60399],[139.68061,35.60413],[139.68067,35.60145],[139.68115,35.60066],[139.68027,35.60062],[139.6802,35.60303],[139.67941,35.60368],[139.6797,35.60384],[139.6795,35.60541],[139.67701,35.60815],[139.67546,35.60849],[139.67321,35.60818],[139.66816,35.60652],[139.66538,35.60729],[139.6633,35.60854],[139.66333,35.60952],[139.66403,35.60986],[139.66328,35.61074],[139.66331,35.61176],[139.66284,35.6118],[139.66335,35.61256],[139.66267,35.61254],[139.66309,35.6152],[139.6646,35.61648],[139.66438,35.61744],[139.6648,35.61838],[139.66638,35.61858],[139.6657,35.62053],[139.66644,35.62086],[139.66414,35.62364],[139.66345,35.62678],[139.66181,35.62748],[139.66232,35.62825],[139.66249,35.63028],[139.66161,35.63195],[139.6645,35.63202],[139.67207,35.62995],[139.67673,35.6274],[139.67832,35.6253],[139.67939,35.62505],[139.68126,35.62996],[139.68414,35.63424],[139.68661,35.63939],[139.68604,35.63962],[139.68586,35.64072],[139.68513,35.64137],[139.68473,35.64251],[139.68424,35.64255],[139.68502,35.6428],[139.68415,35.64459],[139.68556,35.64505],[139.68502,35.64622],[139.68437,35.646],[139.68405,35.64918],[139.68469,35.65139],[139.68246,35.65227],[139.68255,35.65276],[139.68415,35.65285],[139.68295,35.65305],[139.68315,35.65451],[139.68186,35.65449],[139.68177,35.6556],[139.6806,35.65568],[139.68059,35.65663],[139.67949,35.6572],[139.6778,35.65971],[139.67669,35.6599],[139.67596,35.66278],[139.67495,35.66411],[139.6797,35.66403],[139.68241,35.6631],[139.68403,35.66309],[139.68736,35.66161],[139.689,35.6588],[139.69572,35.65177],[139.6955,35.65159],[139.69609,35.65084],[139.69689,35.65071],[139.69916,35.64884],[139.6989,35.64857],[139.69985,35.64815],[139.69954,35.64785],[139.70025,35.64733],[139.70196,35.64673],[139.70603,35.64395],[139.70644,35.64404],[139.70652,35.64344],[139.70879,35.64211],[139.71026,35.6415],[139.71048,35.64203],[139.7125,35.64235],[139.71354,35.64166],[139.71414,35.64214],[139.71508,35.64204],[139.71534,35.64306],[139.71675,35.64173],[139.71775,35.64158],[139.71559,35.64064],[139.71396,35.6381],[139.7132,35.63863],[139.71384,35.63809],[139.71333,35.63752],[139.71391,35.63599],[139.71341,35.63553],[139.71463,35.63426],[139.7141,35.63292],[139.71466,35.63195],[139.71427,35.63156],[139.71521,35.63001],[139.71422,35.62961],[139.71452,35.6292]]]}},{"type":"Feature","bbox":[139.65283,35.48166,139.85782,35.61308],"properties":{"ku":"ota","name":"Ota-ku","name_local":"大田区","osm":1758947},"geometry":{"type":"Polygon","coordinates":[[[139.69519,35.60811],[139.69741,35.60457],[139.70087,35.6016],[139.71194,35.60081],[139.71487,35.59991],[139.71462,35.59917],[139.71403,35.59915],[139.71452,35.59743],[139.71758,35.59651],[139.71727,35.59584],[139.71925,35.59261],[139.71893,35.59245],[139.71915,35.59202],[139.72028,35.59259],[139.72099,35.59443],[139.72653,35.59413],[139.72808,35.59455],[139.72893,35.59388],[139.72917,35.59272],[139.73039,35.59216],[139.72925,35.58959],[139.72988,35.58946],[139.72939,35.58838],[139.72991,35.58728],[139.73577,35.58724],[139.73577,35.58793],[139.73805,35.58811],[139.73826,35.58773],[139.74797,35.59059],[139.74849,35.58886],[139.75051,35.5893],[139.75055,35.58988],[139.75526,35.58972],[139.75542,35.58449],[139.7629,35.58467],[139.76233,35.59495],[139.76534,35.59489],[139.7671,35.59253],[139.7799,35.59902],[139.78181,35.59684],[139.78261,35.59419],[139.78445,35.5913],[139.78703,35.58938],[139.78857,35.58887],[139.80444,35.59768],[139.81171,35.58865],[139.79742,35.58099],[139.80297,35.57591],[139.85782,35.53083],[139.85775,35.48166],[139.81848,35.50735],[139.81082,35.51457],[139.76797,35.53942],[139.75684,35.54456],[139.75004,35.54475],[139.74677,35.54383],[139.7394,35.5451],[139.73766,35.54439],[139.73495,35.54122],[139.73375,35.54087],[139.73035,35.54291],[139.72656,35.54357],[139.72294,35.54187],[139.7182,35.53831],[139.71014,35.53646],[139.70429,35.53637],[139.70037,35.53812],[139.69813,35.54112],[139.69807,35.54473],[139.70078,35.54745],[139.70353,35.54941],[139.70422,35.55117],[139.70373,35.55261],[139.70229,35.55397],[139.69934,35.55569],[139.69001,35.55713],[139.67879,35.56299],[139.67599,35.56688],[139.66871,35.58559],[139.66609,35.58826],[139.6638,35.5898],[139.65879,35.58943],[139.65864,35.58979],[139.65549,35.58998],[139.65698,35.59319],[139.6581,35.59315],[139.65822,35.59346],[139.65431,35.59489],[139.65283,35.59599],[139.65363,35.59728],[139.65559,35.59646],[139.65659,35.59748],[139.65622,35.59788],[139.65932,35.60001],[139.66268,35.5986],[139.66413,35.59977],[139.66501,35.59875],[139.6672,35.59952],[139.66711,35.59888],[139.66838,35.59874],[139.66893,35.59816],[139.66984,35.59923],[139.67597,35.59174],[139.68081,35.59485],[139.68048,35.59754],[139.6808,35.59782],[139.68029,35.59812],[139.68117,35.5982],[139.68109,35.59874],[139.68021,35.59877],[139.68035,35.60061],[139.68115,35.60066],[139.68067,35.60145],[139.68061,35.60413],[139.68285,35.60399],[139.68308,35.60258],[139.6843,35.60224],[139.68518,35.60689],[139.68421,35.61308],[139.68616,35.61169],[139.69142,35.61109],[139.6939,35.60948],[139.69519,35.60811]]]}},{"type":"Feature","bbox":[139.58239,35.58998,139.68661,35.683],"properties":{"ku":"setagaya","name":"Setagaya-ku","name_local":"世田谷区","osm":1759474},"geometry":{"type":"Polygon","coordinates":[[[139.65549,35.58998],[139.65698,35.59319],[139.6581,35.59315],[139.65822,35.59346],[139.65431,35.59489],[139.65283,35.59599],[139.65363,35.59728],[139.65559,35.59646],[139.65659,35.59748],[139.65622,35.59788],[139.65932,35.60001],[139.66268,35.5986],[139.66413,35.59977],[139.66501,35.59875],[139.6672,35.59952],[139.66711,35.59888],[139.66838,35.59874],[139.66893,35.59816],[139.66984,35.59923],[139.67597,35.59174],[139.68084,35.59497],[139.68048,35.59754],[139.6808,35.59782],[139.68029,35.59812],[139.68117,35.5982],[139.68066,35.59901],[139.68021,35.59877],[139.6802,35.60303],[139.67941,35.60368],[139.6797,35.60384],[139.67928,35.60579],[139.6772,35.60804],[139.67546,35.60849],[139.67343,35.60822],[139.66869,35.60659],[139.66732,35.60662],[139.6633,35.60854],[139.66333,35.60952],[139.66403,35.60986],[139.66328,35.61074],[139.66331,35.61176],[139.66284,35.6118],[139.66335,35.61256],[139.66267,35.61254],[139.66309,35.6152],[139.6646,35.61648],[139.66438,35.61744],[139.6648,35.61838],[139.66638,35.61858],[139.6657,35.62053],[139.66644,35.62086],[139.66414,35.62364],[139.66345,35.62678],[139.66181,35.62748],[139.66232,35.62825],[139.66249,35.63028],[139.66161,35.63195],[139.6645,35.63202],[139.67207,35.62995],[139.67673,35.6274],[139.67832,35.6253],[139.67939,35.62505],[139.68126,35.62996],[139.68414,35.63424],[139.68661,35.63939],[139.68604,35.63962],[139.68586,35.64072],[139.68513,35.64137],[139.68473,35.64251],[139.68424,35.64255],[139.68502,35.6428],[139.68415,35.64459],[139.68556,35.64505],[139.68502,35.64622],[139.68437,35.646],[139.68405,35.64918],[139.68469,35.65139],[139.68246,35.65227],[139.68255,35.65276],[139.68415,35.65285],[139.68295,35.65305],[139.68315,35.65451],[139.68186,35.65449],[139.68177,35.6556],[139.6806,35.65568],[139.68059,35.65663],[139.67949,35.6572],[139.6778,35.65971],[139.67669,35.6599],[139.67596,35.66278],[139.6748,35.66393],[139.67319,35.66703],[139.67247,35.66981],[139.67282,35.67221],[139.66886,35.67153],[139.66316,35.67143],[139.66161,35.67156],[139.66152,35.67278],[139.65513,35.6709],[139.6502,35.67017],[139.64576,35.6682],[139.64137,35.66754],[139.6415,35.66668],[139.63935,35.66588],[139.63769,35.66597],[139.63684,35.66612],[139.63696,35.66668],[139.6327,35.66821],[139.62487,35.66926],[139.62479,35.67035],[139.62316,35.67061],[139.62317,35.67149],[139.62148,35.67264],[139.61329,35.67542],[139.61262,35.676],[139.61192,35.67547],[139.61192,35.67619],[139.61071,35.67651],[139.61024,35.6765],[139.61149,35.6749],[139.61351,35.67374],[139.61343,35.6728],[139.61668,35.67255],[139.61647,35.66988],[139.61535,35.66902],[139.61571,35.66957],[139.61477,35.66915],[139.61363,35.67062],[139.61131,35.66998],[139.61142,35.67047],[139.61066,35.67054],[139.61062,35.67086],[139.60938,35.67067],[139.6092,35.67021],[139.60891,35.67399],[139.60936,35.67399],[139.60929,35.67472],[139.60888,35.67468],[139.60914,35.67507],[139.60849,35.67643],[139.60749,35.67602],[139.60682,35.67755],[139.60296,35.68065],[139.59709,35.68214],[139.59445,35.68236],[139.59327,35.68192],[139.58641,35.683],[139.58515,35.68276],[139.58741,35.68227],[139.59185,35.68215],[139.59197,35.6818],[139.58758,35.68195],[139.58514,35.68248],[139.58619,35.68106],[139.58747,35.68101],[139.58867,35.67936],[139.58787,35.6782],[139.5866,35.67739],[139.587,35.67479],[139.58792,35.67443],[139.58764,35.67384],[139.58625,35.67433],[139.58499,35.67396],[139.58267,35.67445],[139.58239,35.67335],[139.5887,35.67062],[139.59011,35.666],[139.58913,35.66593],[139.58839,35.66539],[139.58826,35.6647],[139.58685,35.66424],[139.58693,35.6638],[139.58759,35.66267],[139.58926,35.66225],[139.5893,35.66169],[139.59013,35.66125],[139.58971,35.66085],[139.58968,35.65895],[139.5901,35.65646],[139.59103,35.65522],[139.59243,35.65537],[139.59318,35.65258],[139.59329,35.65154],[139.59207,35.65162],[139.59226,35.64599],[139.59036,35.64529],[139.58983,35.64557],[139.58977,35.64504],[139.58681,35.6462],[139.5875,35.64555],[139.58696,35.64489],[139.58727,35.64397],[139.58659,35.64353],[139.58644,35.64273],[139.58578,35.64273],[139.5859,35.64199],[139.58425,35.6412],[139.58565,35.63767],[139.58752,35.63521],[139.58948,35.63472],[139.59152,35.63289],[139.59116,35.63099],[139.59235,35.63046],[139.59283,35.6296],[139.59221,35.62877],[139.59218,35.62751],[139.59348,35.62761],[139.59414,35.62705],[139.59354,35.62662],[139.59377,35.62627],[139.5923,35.62418],[139.59246,35.62379],[139.5912,35.62376],[139.58965,35.62459],[139.58943,35.6232],[139.58984,35.62168],[139.58918,35.6214],[139.5903,35.61836],[139.59245,35.61751],[139.59544,35.61834],[139.59899,35.61855],[139.60566,35.61558],[139.60893,35.61652],[139.61212,35.61592],[139.61303,35.61478],[139.6156,35.61328],[139.61832,35.6137],[139.62186,35.61172],[139.6241,35.61096],[139.62543,35.60941],[139.62737,35.60889],[139.62846,35.60792],[139.62864,35.60818],[139.63114,35.60735],[139.63219,35.60658],[139.63179,35.60592],[139.63283,35.60498],[139.63508,35.60352],[139.63622,35.60345],[139.63985,35.60018],[139.64876,35.59504],[139.65043,35.59258],[139.65549,35.58998]]]}},{"type":"Feature","bbox":[139.66138,35.64149,139.72393,35.69216],"properties":{"ku":"shibuya","name":"Shibuya-ku","name_local":"渋谷区","osm":1759477},"geometry":{"type":"Polygon","coordinates":[[[139.72181,35.65232],[139.72221,35.65234],[139.72284,35.64785],[139.72393,35.64673],[139.72315,35.64549],[139.72281,35.64554],[139.72273,35.64464],[139.72097,35.64413],[139.72138,35.64373],[139.71928,35.64149],[139.71675,35.64173],[139.71534,35.64306],[139.71508,35.64204],[139.71414,35.64214],[139.71354,35.64166],[139.71192,35.64232],[139.71048,35.64203],[139.71026,35.6415],[139.70723,35.64297],[139.70652,35.64344],[139.70644,35.64404],[139.70533,35.64434],[139.70196,35.64673],[139.70025,35.64733],[139.69954,35.64785],[139.69985,35.64815],[139.6989,35.64857],[139.69916,35.64884],[139.69689,35.65071],[139.69609,35.65084],[139.6955,35.65159],[139.69572,35.65177],[139.68926,35.65847],[139.68727,35.66167],[139.68403,35.66309],[139.68241,35.6631],[139.6797,35.66403],[139.67471,35.66424],[139.67319,35.66703],[139.67247,35.66981],[139.67282,35.67221],[139.66886,35.67153],[139.66161,35.67156],[139.66147,35.67307],[139.66182,35.67367],[139.66138,35.6746],[139.66188,35.67567],[139.66531,35.67707],[139.66745,35.67992],[139.67141,35.68151],[139.6742,35.68365],[139.67631,35.6862],[139.68352,35.6921],[139.68448,35.69216],[139.68422,35.69181],[139.68487,35.69144],[139.68316,35.68863],[139.68403,35.68743],[139.68574,35.68777],[139.68563,35.68649],[139.68468,35.68633],[139.68477,35.68586],[139.68582,35.68348],[139.68744,35.68172],[139.69461,35.68664],[139.69951,35.68867],[139.69985,35.68847],[139.69973,35.68877],[139.70215,35.68934],[139.70194,35.68832],[139.70279,35.6879],[139.70554,35.68783],[139.70681,35.68618],[139.70701,35.68464],[139.71127,35.68334],[139.7145,35.68075],[139.71272,35.67636],[139.7127,35.67442],[139.71485,35.6749],[139.71507,35.67391],[139.71627,35.67322],[139.71669,35.67243],[139.71648,35.67215],[139.71484,35.67295],[139.714,35.67036],[139.71509,35.66964],[139.7144,35.66923],[139.71392,35.66942],[139.70874,35.66418],[139.71038,35.66303],[139.71219,35.66082],[139.71397,35.65974],[139.71339,35.65867],[139.71262,35.65859],[139.7146,35.65722],[139.71793,35.65641],[139.71824,35.65707],[139.72208,35.65575],[139.72296,35.65637],[139.7217,35.65392],[139.72181,35.65232]]]}},{"type":"Feature","bbox":[139.62429,35.67656,139.69429,35.73545],"properties":{"ku":"nakano","name":"Nakano-ku","name_local":"中野区","osm":1543056},"geometry":{"type":"Polygon","coordinates":[[[139.68663,35.69639],[139.68836,35.69915],[139.6874,35.70283],[139.68831,35.70693],[139.69311,35.70968],[139.69429,35.71103],[139.69271,35.71117],[139.69254,35.71058],[139.69155,35.71103],[139.69111,35.71049],[139.69007,35.71079],[139.69013,35.7113],[139.68835,35.71119],[139.68276,35.71001],[139.68177,35.71078],[139.68003,35.71105],[139.68203,35.7133],[139.68099,35.71327],[139.68184,35.71413],[139.68081,35.71402],[139.68087,35.7145],[139.6803,35.71457],[139.67996,35.71417],[139.67918,35.71477],[139.67953,35.71633],[139.67892,35.71813],[139.67833,35.71817],[139.67683,35.71956],[139.67566,35.71964],[139.6753,35.72004],[139.67528,35.71908],[139.67344,35.71848],[139.67378,35.71927],[139.67327,35.71966],[139.67354,35.72061],[139.67434,35.72042],[139.67457,35.72138],[139.67571,35.72138],[139.67535,35.72415],[139.67576,35.72586],[139.67676,35.72771],[139.67682,35.7299],[139.67753,35.72956],[139.67799,35.73062],[139.67493,35.73301],[139.67367,35.73359],[139.67125,35.73371],[139.67041,35.73261],[139.66969,35.73287],[139.66935,35.73211],[139.66823,35.73221],[139.668,35.73135],[139.66498,35.73133],[139.66319,35.72789],[139.66169,35.7269],[139.65966,35.72676],[139.65969,35.72572],[139.65561,35.72631],[139.65206,35.72608],[139.65029,35.72686],[139.6475,35.72663],[139.64751,35.72536],[139.64376,35.72516],[139.63962,35.72617],[139.63971,35.72741],[139.63787,35.72848],[139.6366,35.73122],[139.63662,35.73198],[139.63625,35.73245],[139.63517,35.7322],[139.63448,35.73434],[139.63386,35.73419],[139.63351,35.73545],[139.62724,35.73503],[139.62737,35.73408],[139.6265,35.73376],[139.62657,35.73307],[139.62606,35.73289],[139.62429,35.72955],[139.6288,35.72097],[139.62951,35.72039],[139.63041,35.72085],[139.63157,35.71991],[139.63111,35.71843],[139.63203,35.7171],[139.63701,35.71657],[139.64156,35.7149],[139.64142,35.71274],[139.6427,35.71172],[139.65092,35.70944],[139.65099,35.70903],[139.65795,35.70924],[139.65805,35.70519],[139.66101,35.70481],[139.66118,35.70254],[139.66073,35.70138],[139.66152,35.70119],[139.66148,35.70024],[139.66198,35.70001],[139.66182,35.69932],[139.66215,35.69932],[139.66241,35.69846],[139.66193,35.697],[139.66101,35.69721],[139.66107,35.69656],[139.66038,35.69646],[139.66097,35.6948],[139.66497,35.69536],[139.66543,35.69464],[139.6659,35.69478],[139.66674,35.69348],[139.66735,35.69373],[139.6678,35.69137],[139.66693,35.69118],[139.6664,35.69042],[139.66411,35.6892],[139.66353,35.68813],[139.6624,35.68744],[139.66093,35.68677],[139.65917,35.68669],[139.6594,35.68515],[139.66019,35.68492],[139.66053,35.68422],[139.65928,35.68319],[139.65937,35.68221],[139.66002,35.68207],[139.66006,35.68135],[139.66062,35.68115],[139.65944,35.67999],[139.66169,35.68036],[139.66255,35.67956],[139.66391,35.67961],[139.66384,35.67886],[139.6648,35.67892],[139.66458,35.67775],[139.6634,35.67799],[139.66403,35.67656],[139.66531,35.67707],[139.66745,35.67992],[139.67141,35.68151],[139.6742,35.68365],[139.67631,35.6862],[139.68374,35.69211],[139.68354,35.69257],[139.6854,35.69399],[139.68663,35.69639]]]}},{"type":"Feature","bbox":[139.58509,35.66588,139.6678,35.73143],"properties":{"ku":"suginami","name":"Suginami-ku","name_local":"杉並区","osm":1543055},"geometry":{"type":"Polygon","coordinates":[[[139.59082,35.70913],[139.58673,35.71172],[139.58694,35.71325],[139.58509,35.71699],[139.58533,35.71813],[139.58677,35.71955],[139.59025,35.72027],[139.59394,35.71809],[139.59578,35.72204],[139.5998,35.72375],[139.602,35.72536],[139.60187,35.72578],[139.60412,35.72676],[139.61571,35.73019],[139.61589,35.72977],[139.617,35.73003],[139.61667,35.73049],[139.62022,35.73143],[139.6199,35.73025],[139.62446,35.73009],[139.62437,35.72927],[139.62755,35.72363],[139.62814,35.72187],[139.62951,35.72039],[139.63041,35.72085],[139.63157,35.71991],[139.63111,35.71843],[139.63203,35.7171],[139.63701,35.71657],[139.64156,35.7149],[139.64142,35.71274],[139.6427,35.71172],[139.65092,35.70944],[139.65099,35.70903],[139.65795,35.70924],[139.65805,35.70519],[139.66101,35.70481],[139.66118,35.70254],[139.66073,35.70138],[139.66152,35.70119],[139.66182,35.69932],[139.66239,35.69884],[139.66193,35.697],[139.66101,35.69721],[139.66107,35.69656],[139.66038,35.69646],[139.66097,35.6948],[139.6646,35.69548],[139.66543,35.69464],[139.6659,35.69478],[139.66674,35.69348],[139.6674,35.69363],[139.6678,35.69137],[139.66693,35.69118],[139.6664,35.69042],[139.66411,35.6892],[139.66353,35.68813],[139.6624,35.68744],[139.66093,35.68677],[139.65917,35.68669],[139.6594,35.68515],[139.66019,35.68492],[139.66053,35.68422],[139.65928,35.68319],[139.65937,35.68221],[139.66002,35.68207],[139.66006,35.68135],[139.66062,35.68115],[139.65944,35.67999],[139.66169,35.68036],[139.66255,35.67956],[139.66391,35.67961],[139.66384,35.67886],[139.6648,35.67892],[139.66476,35.67798],[139.6634,35.67799],[139.66403,35.67656],[139.66179,35.67557],[139.66138,35.6746],[139.66182,35.67367],[139.66152,35.67278],[139.65513,35.6709],[139.6502,35.67017],[139.64551,35.66813],[139.64137,35.66754],[139.6415,35.66668],[139.63935,35.66588],[139.63684,35.66612],[139.63696,35.66668],[139.6327,35.66821],[139.62487,35.66926],[139.62479,35.67035],[139.62316,35.67061],[139.62317,35.67149],[139.62148,35.67264],[139.61329,35.67542],[139.61262,35.676],[139.61192,35.67547],[139.61192,35.67619],[139.61071,35.67651],[139.61024,35.6765],[139.61149,35.6749],[139.61351,35.67374],[139.61343,35.6728],[139.61668,35.67255],[139.61647,35.66988],[139.61535,35.66902],[139.61571,35.66957],[139.61477,35.66915],[139.61363,35.67062],[139.61131,35.66998],[139.61142,35.67047],[139.61066,35.67054],[139.61062,35.67086],[139.60938,35.67067],[139.6092,35.67021],[139.60891,35.67399],[139.60936,35.67399],[139.60929,35.67472],[139.60888,35.67468],[139.60914,35.67507],[139.60849,35.67643],[139.60749,35.67602],[139.60682,35.67755],[139.60296,35.68065],[139.59875,35.68189],[139.59396,35.68231],[139.59284,35.68293],[139.59302,35.68331],[139.59208,35.68428],[139.59254,35.68515],[139.59149,35.68543],[139.59175,35.68601],[139.59055,35.68688],[139.59156,35.68768],[139.59286,35.68801],[139.59282,35.689],[139.59384,35.68884],[139.59128,35.69149],[139.58675,35.69415],[139.58815,35.69559],[139.59013,35.69479],[139.59277,35.7009],[139.5955,35.70568],[139.59082,35.70913]]]}},{"type":"Feature","bbox":[139.67753,35.7123,139.75259,35.74599],"properties":{"ku":"toshima","name":"Toshima-ku","name_local":"豊島区","osm":1759506},"geometry":{"type":"Polygon","coordinates":[[[139.7417,35.73075],[139.74127,35.73116],[139.74343,35.7327],[139.74232,35.73356],[139.74304,35.73471],[139.74529,35.73591],[139.74761,35.73517],[139.74783,35.73472],[139.74744,35.7346],[139.74824,35.73349],[139.74893,35.73353],[139.74856,35.73308],[139.74895,35.73283],[139.7503,35.73348],[139.75062,35.73395],[139.7503,35.73438],[139.75259,35.73525],[139.74971,35.73658],[139.74843,35.73885],[139.74678,35.73989],[139.74633,35.73877],[139.74515,35.73925],[139.74407,35.73889],[139.74427,35.74063],[139.74467,35.7408],[139.74115,35.74233],[139.73504,35.74063],[139.73293,35.74288],[139.73196,35.74322],[139.73284,35.74498],[139.72788,35.74512],[139.72748,35.74373],[139.72459,35.74063],[139.72494,35.74014],[139.72561,35.74012],[139.7256,35.73967],[139.725,35.74006],[139.72463,35.73961],[139.72404,35.73964],[139.72246,35.74114],[139.72011,35.74195],[139.71977,35.74513],[139.71478,35.74599],[139.71449,35.74544],[139.71047,35.74598],[139.70904,35.74434],[139.70837,35.74206],[139.70396,35.73747],[139.70358,35.73578],[139.70189,35.7362],[139.70171,35.73713],[139.7021,35.73726],[139.70078,35.74005],[139.69907,35.73989],[139.6987,35.7423],[139.69465,35.74212],[139.69465,35.74307],[139.69348,35.7429],[139.69271,35.74348],[139.68953,35.74121],[139.68108,35.73875],[139.68072,35.73833],[139.68114,35.73773],[139.68067,35.73775],[139.68046,35.73676],[139.67907,35.73551],[139.67856,35.73447],[139.67916,35.73276],[139.67765,35.73177],[139.67837,35.73103],[139.67753,35.72956],[139.68134,35.72726],[139.6822,35.72389],[139.68421,35.72376],[139.68439,35.72269],[139.68968,35.72281],[139.69797,35.72213],[139.69951,35.72279],[139.69991,35.7235],[139.70469,35.72279],[139.7043,35.72222],[139.70582,35.72148],[139.70472,35.72086],[139.70453,35.72013],[139.70577,35.71857],[139.70565,35.71666],[139.70539,35.71678],[139.70548,35.71633],[139.70475,35.71647],[139.70419,35.71477],[139.70558,35.71447],[139.70578,35.71403],[139.70522,35.71391],[139.7058,35.71362],[139.70943,35.71392],[139.71031,35.71356],[139.71108,35.71454],[139.71195,35.7148],[139.71465,35.71311],[139.7155,35.71313],[139.71575,35.71365],[139.71841,35.7125],[139.7193,35.71248],[139.71961,35.71302],[139.72013,35.7123],[139.72053,35.71285],[139.72086,35.71248],[139.7221,35.71262],[139.7203,35.71366],[139.71726,35.71461],[139.71796,35.71695],[139.71773,35.71736],[139.71827,35.71796],[139.71927,35.71752],[139.71955,35.71833],[139.72278,35.71894],[139.72311,35.71975],[139.72416,35.72005],[139.72505,35.71979],[139.72323,35.7223],[139.72268,35.72503],[139.72442,35.72543],[139.72438,35.72605],[139.72536,35.7261],[139.72468,35.72666],[139.72617,35.72651],[139.72636,35.72707],[139.72934,35.72554],[139.72991,35.72627],[139.73115,35.72437],[139.73196,35.72411],[139.73242,35.72425],[139.7322,35.72466],[139.73292,35.7248],[139.73301,35.72534],[139.73335,35.72504],[139.734,35.72552],[139.73558,35.72493],[139.7361,35.72521],[139.73536,35.72607],[139.73744,35.72686],[139.73677,35.72736],[139.73714,35.72756],[139.73681,35.72812],[139.7355,35.72925],[139.73674,35.73018],[139.73642,35.73052],[139.7388,35.73198],[139.74076,35.73022],[139.7417,35.73075]]]}},{"type":"Feature","bbox":[139.68947,35.73171,139.77074,35.79865],"properties":{"ku":"kita","name":"Kita-ku","name_local":"北区","osm":1760038},"geometry":{"type":"Polygon","coordinates":[[[139.72911,35.74498],[139.73284,35.74498],[139.73196,35.74322],[139.73293,35.74288],[139.73504,35.74063],[139.74115,35.74233],[139.74427,35.74111],[139.74467,35.7408],[139.74427,35.74063],[139.74407,35.73889],[139.74515,35.73925],[139.74633,35.73877],[139.74678,35.73989],[139.74843,35.73885],[139.74988,35.73647],[139.75353,35.73508],[139.76015,35.73171],[139.76182,35.7329],[139.76149,35.73376],[139.76361,35.73375],[139.76444,35.73463],[139.76377,35.73539],[139.77074,35.73804],[139.76987,35.73905],[139.76869,35.73923],[139.76823,35.7414],[139.76574,35.74158],[139.76444,35.74248],[139.76409,35.7441],[139.76266,35.74349],[139.76053,35.74395],[139.76013,35.74343],[139.7572,35.74522],[139.75795,35.74616],[139.75797,35.74747],[139.75536,35.74749],[139.75491,35.74773],[139.75523,35.74889],[139.75228,35.74915],[139.74964,35.75029],[139.74956,35.75143],[139.75089,35.75253],[139.75102,35.75361],[139.75726,35.75316],[139.75777,35.75485],[139.74981,35.75659],[139.74874,35.75742],[139.74821,35.75918],[139.74882,35.75988],[139.76016,35.7656],[139.75967,35.76746],[139.75852,35.76905],[139.75066,35.7673],[139.74639,35.76706],[139.73632,35.77046],[139.73569,35.77242],[139.73596,35.77369],[139.73847,35.77864],[139.73804,35.78018],[139.73909,35.78686],[139.73781,35.78805],[139.73422,35.78981],[139.73264,35.78983],[139.72657,35.78721],[139.72468,35.78715],[139.72305,35.78812],[139.72247,35.79063],[139.72115,35.79144],[139.71892,35.79198],[139.70922,35.79229],[139.70634,35.79306],[139.69726,35.79865],[139.697,35.79619],[139.69534,35.79534],[139.69462,35.79559],[139.69063,35.79057],[139.68947,35.7868],[139.69127,35.78441],[139.69565,35.78246],[139.69844,35.78213],[139.70241,35.78428],[139.70289,35.78373],[139.70321,35.78219],[139.70255,35.78146],[139.70455,35.77537],[139.70469,35.77416],[139.70436,35.7738],[139.70482,35.77374],[139.70544,35.77233],[139.7066,35.76705],[139.70782,35.76615],[139.70813,35.76538],[139.70912,35.76563],[139.71033,35.76341],[139.71138,35.76369],[139.71315,35.76327],[139.71629,35.76072],[139.7192,35.75717],[139.7192,35.75671],[139.72114,35.75542],[139.72022,35.75502],[139.72241,35.75355],[139.72272,35.75122],[139.72176,35.74898],[139.72217,35.7488],[139.72174,35.74799],[139.72221,35.74746],[139.72132,35.74747],[139.72123,35.74629],[139.72019,35.74673],[139.71963,35.74518],[139.72011,35.74195],[139.7229,35.74091],[139.72404,35.73964],[139.725,35.74006],[139.7256,35.73967],[139.72561,35.74012],[139.72494,35.74014],[139.72459,35.74063],[139.72748,35.74373],[139.72788,35.74512],[139.72911,35.74498]]]}},{"type":"Feature","bbox":[139.74956,35.72478,139.81474,35.75485],"properties":{"ku":"arakawa","name":"Arakawa-ku","name_local":"荒川区","osm":1760040},"geometry":{"type":"Polygon","coordinates":[[[139.8098,35.72803],[139.81005,35.73028],[139.81079,35.73189],[139.81448,35.73652],[139.81474,35.7375],[139.8141,35.74026],[139.81118,35.74123],[139.80233,35.73866],[139.79472,35.73987],[139.79266,35.7406],[139.79114,35.74167],[139.78848,35.74532],[139.78834,35.74615],[139.7888,35.74729],[139.79118,35.74898],[139.79144,35.74971],[139.78957,35.75234],[139.7888,35.75271],[139.78231,35.75407],[139.76953,35.75357],[139.75777,35.75485],[139.75726,35.75316],[139.75102,35.75361],[139.75089,35.75253],[139.74956,35.75143],[139.74964,35.75029],[139.75104,35.74951],[139.75523,35.74889],[139.75491,35.74773],[139.75536,35.74749],[139.75797,35.74747],[139.75795,35.74616],[139.7572,35.74522],[139.76013,35.74343],[139.76053,35.74395],[139.76266,35.74349],[139.76409,35.7441],[139.76444,35.74248],[139.76574,35.74158],[139.76823,35.7414],[139.76869,35.73923],[139.76987,35.73905],[139.77063,35.73839],[139.77056,35.73784],[139.76377,35.73539],[139.76444,35.73463],[139.76327,35.73353],[139.76212,35.73397],[139.76149,35.73376],[139.76182,35.7329],[139.76135,35.73239],[139.76152,35.73196],[139.7651,35.73026],[139.76561,35.72949],[139.76579,35.72769],[139.76724,35.72732],[139.76993,35.72813],[139.77227,35.72682],[139.77297,35.72596],[139.77412,35.72659],[139.77656,35.72535],[139.78128,35.72478],[139.78128,35.72529],[139.78215,35.72554],[139.78229,35.7265],[139.78301,35.72665],[139.78375,35.7276],[139.78786,35.72781],[139.78937,35.72849],[139.79152,35.73131],[139.79248,35.73087],[139.79273,35.73008],[139.79428,35.73034],[139.79433,35.72979],[139.79508,35.7298],[139.79517,35.72892],[139.80143,35.72917],[139.8098,35.72803]]]}},{"type":"Feature","bbox":[139.62454,35.73578,139.72276,35.80079],"properties":{"ku":"itabashi","name":"Itabashi-ku","name_local":"板橋区","osm":1760078},"geometry":{"type":"Polygon","coordinates":[[[139.70648,35.76789],[139.7066,35.76705],[139.70782,35.76615],[139.70813,35.76538],[139.70912,35.76563],[139.71033,35.76341],[139.71138,35.76369],[139.71315,35.76327],[139.71629,35.76072],[139.7192,35.75717],[139.7192,35.75671],[139.72114,35.75542],[139.72022,35.75502],[139.72241,35.75355],[139.7224,35.752],[139.72276,35.75186],[139.72176,35.74898],[139.72217,35.7488],[139.72174,35.74799],[139.72221,35.74746],[139.72132,35.74747],[139.72123,35.74629],[139.72019,35.74673],[139.71963,35.74518],[139.71478,35.74599],[139.71449,35.74544],[139.71023,35.74593],[139.70904,35.74434],[139.70837,35.74206],[139.70396,35.73747],[139.70358,35.73578],[139.70189,35.7362],[139.70171,35.73713],[139.7021,35.73726],[139.70078,35.74005],[139.69907,35.73989],[139.6987,35.7423],[139.69465,35.74212],[139.69465,35.74307],[139.69348,35.7429],[139.69271,35.74348],[139.68953,35.74121],[139.68027,35.73861],[139.67898,35.74065],[139.67969,35.7416],[139.68028,35.74156],[139.68027,35.74195],[139.67977,35.74177],[139.6805,35.74202],[139.68098,35.74393],[139.67577,35.7456],[139.67231,35.74451],[139.67236,35.74568],[139.67411,35.74914],[139.67499,35.75199],[139.67358,35.75328],[139.67332,35.75466],[139.67382,35.75876],[139.67183,35.76055],[139.67075,35.7622],[139.66894,35.76735],[139.66765,35.76725],[139.66137,35.76869],[139.65441,35.76926],[139.65256,35.76872],[139.6503,35.76903],[139.64752,35.76851],[139.64578,35.769],[139.64268,35.77075],[139.64101,35.7688],[139.63482,35.7687],[139.63473,35.76987],[139.63354,35.76986],[139.63358,35.77061],[139.63013,35.7725],[139.6292,35.77192],[139.6294,35.77412],[139.62912,35.77441],[139.62961,35.77698],[139.62532,35.77782],[139.62574,35.77929],[139.62454,35.77987],[139.62516,35.78033],[139.62487,35.78104],[139.6257,35.78116],[139.62641,35.78239],[139.62756,35.78273],[139.62789,35.7843],[139.62891,35.78529],[139.63019,35.78501],[139.63081,35.78607],[139.63156,35.78601],[139.63191,35.78656],[139.63169,35.78707],[139.63248,35.78727],[139.63189,35.78848],[139.63239,35.78873],[139.63227,35.78907],[139.63299,35.78961],[139.63391,35.78937],[139.63367,35.78972],[139.63506,35.79074],[139.63747,35.79078],[139.63805,35.79208],[139.63884,35.79252],[139.63919,35.79369],[139.63983,35.79385],[139.64016,35.79527],[139.6396,35.79552],[139.64066,35.79563],[139.64029,35.79803],[139.64069,35.79775],[139.64119,35.79808],[139.64252,35.79726],[139.64306,35.79832],[139.64357,35.79813],[139.64435,35.79886],[139.64803,35.79716],[139.65338,35.80018],[139.65445,35.80031],[139.66883,35.80042],[139.67437,35.79912],[139.67994,35.79893],[139.68683,35.80065],[139.69138,35.80079],[139.6951,35.79975],[139.69527,35.79769],[139.69456,35.79551],[139.69063,35.79057],[139.68947,35.7868],[139.69127,35.78441],[139.69565,35.78246],[139.69907,35.78227],[139.70241,35.78428],[139.70321,35.78219],[139.70255,35.78158],[139.70264,35.78109],[139.70455,35.77537],[139.70469,35.77416],[139.70436,35.7738],[139.70482,35.77374],[139.70544,35.77233],[139.70648,35.76789]]]}},{"type":"Feature","bbox":[139.5629,35.71172,139.68114,35.77987],"properties":{"ku":"nerima","name":"Nerima-ku","name_local":"練馬区","osm":1760119},"geometry":{"type":"Polygon","coordinates":[[[139.68027,35.73861],[139.67898,35.74065],[139.67969,35.7416],[139.68028,35.74156],[139.68027,35.74195],[139.67977,35.74177],[139.6805,35.74202],[139.68098,35.74393],[139.67577,35.7456],[139.67231,35.74451],[139.67236,35.74568],[139.67411,35.74914],[139.67499,35.75199],[139.67358,35.75328],[139.67332,35.75466],[139.67382,35.75876],[139.67183,35.76055],[139.67075,35.7622],[139.66894,35.76735],[139.66765,35.76725],[139.66137,35.76869],[139.65441,35.76926],[139.65256,35.76872],[139.6503,35.76903],[139.64752,35.76851],[139.64578,35.769],[139.64268,35.77075],[139.64101,35.7688],[139.63482,35.7687],[139.63473,35.76987],[139.63354,35.76986],[139.63358,35.77061],[139.63013,35.7725],[139.6292,35.77192],[139.6294,35.77412],[139.62912,35.77441],[139.62961,35.77698],[139.62532,35.77782],[139.62574,35.77929],[139.62454,35.77987],[139.62403,35.77403],[139.62427,35.77339],[139.62538,35.77277],[139.62424,35.77176],[139.6232,35.76669],[139.61768,35.76659],[139.61694,35.76858],[139.6168,35.76992],[139.6172,35.77027],[139.61293,35.77079],[139.61142,35.76949],[139.6119,35.77061],[139.61103,35.77118],[139.60953,35.77028],[139.6087,35.76908],[139.60705,35.76928],[139.60641,35.7713],[139.60406,35.77018],[139.60317,35.77115],[139.59868,35.76901],[139.59792,35.76991],[139.59886,35.77029],[139.59733,35.7713],[139.60277,35.77562],[139.59681,35.77666],[139.59705,35.77813],[139.59431,35.77854],[139.59393,35.77729],[139.58876,35.77878],[139.58697,35.77521],[139.58444,35.7751],[139.58404,35.77437],[139.58443,35.77319],[139.58185,35.77254],[139.58239,35.77108],[139.58121,35.77124],[139.58111,35.77206],[139.58074,35.77202],[139.58083,35.77132],[139.57809,35.77124],[139.578,35.76977],[139.57702,35.76792],[139.5741,35.7682],[139.57447,35.76625],[139.57229,35.76625],[139.57243,35.76568],[139.57036,35.76555],[139.57081,35.76454],[139.57052,35.76434],[139.57097,35.76446],[139.57154,35.76342],[139.56974,35.76305],[139.56917,35.76349],[139.56848,35.76334],[139.56854,35.76304],[139.56658,35.76246],[139.56685,35.762],[139.56586,35.7618],[139.56527,35.76184],[139.56498,35.7629],[139.56361,35.76281],[139.5629,35.76155],[139.56372,35.76156],[139.56397,35.7598],[139.56533,35.7585],[139.56614,35.75697],[139.56663,35.75684],[139.56674,35.75561],[139.56804,35.75506],[139.56797,35.75355],[139.56935,35.75125],[139.56943,35.74996],[139.56791,35.75018],[139.56911,35.74782],[139.56657,35.74761],[139.56647,35.74726],[139.56795,35.74437],[139.56836,35.7416],[139.56843,35.7381],[139.56797,35.73788],[139.56733,35.73615],[139.56948,35.73403],[139.56622,35.72745],[139.56541,35.7243],[139.56573,35.72301],[139.56539,35.7215],[139.57502,35.71882],[139.58114,35.71433],[139.58673,35.71172],[139.58694,35.71325],[139.58509,35.71699],[139.58533,35.71813],[139.58677,35.71955],[139.59025,35.72027],[139.59394,35.71809],[139.59578,35.72204],[139.5998,35.72375],[139.602,35.72536],[139.60187,35.72578],[139.60956,35.72855],[139.61571,35.73019],[139.61589,35.72977],[139.617,35.73003],[139.61667,35.73049],[139.62022,35.73143],[139.6199,35.73025],[139.62446,35.73009],[139.62606,35.73289],[139.62657,35.73307],[139.6265,35.73376],[139.62737,35.73408],[139.62724,35.73503],[139.63351,35.73545],[139.63386,35.73419],[139.63448,35.73434],[139.63517,35.7322],[139.63625,35.73245],[139.63662,35.73198],[139.6366,35.73122],[139.63787,35.72848],[139.63971,35.72741],[139.63962,35.72617],[139.64376,35.72516],[139.64751,35.72536],[139.6475,35.72663],[139.65029,35.72686],[139.65206,35.72608],[139.65561,35.72631],[139.65969,35.72572],[139.65966,35.72676],[139.66169,35.7269],[139.66319,35.72789],[139.66481,35.73123],[139.668,35.73135],[139.66823,35.73221],[139.66935,35.73211],[139.66969,35.73287],[139.67041,35.73261],[139.67125,35.73371],[139.67367,35.73359],[139.67479,35.73311],[139.67799,35.73062],[139.67837,35.73103],[139.67765,35.73177],[139.67912,35.7326],[139.67924,35.7333],[139.67856,35.73447],[139.67907,35.73551],[139.68046,35.73676],[139.68067,35.73775],[139.68114,35.73773],[139.68072,35.73833],[139.68108,35.73875],[139.68027,35.73861]]]}},{"type":"Feature","bbox":[139.73569,35.73866,139.85869,35.81738],"properties":{"ku":"adachi","name":"Adachi-ku","name_local":"足立区","osm":1760124},"geometry":{"type":"Polygon","coordinates":[[[139.81335,35.75937],[139.8169,35.76049],[139.81712,35.76011],[139.81982,35.7605],[139.82027,35.75594],[139.82293,35.7556],[139.8234,35.75583],[139.82415,35.76186],[139.82701,35.76217],[139.82597,35.76168],[139.82532,35.75928],[139.82557,35.75801],[139.82779,35.75737],[139.82951,35.75761],[139.83093,35.75881],[139.83069,35.76245],[139.83158,35.76375],[139.83236,35.76392],[139.83548,35.76311],[139.83757,35.76333],[139.83796,35.766],[139.84185,35.76633],[139.84357,35.7683],[139.84537,35.76932],[139.85127,35.7697],[139.85223,35.76563],[139.85402,35.76547],[139.85629,35.76418],[139.85818,35.7661],[139.85869,35.76753],[139.85862,35.76902],[139.85781,35.77064],[139.84958,35.77977],[139.84714,35.78353],[139.84527,35.78779],[139.84442,35.7909],[139.84445,35.79425],[139.84683,35.79638],[139.84388,35.79952],[139.83941,35.80076],[139.83747,35.80064],[139.83256,35.79549],[139.83076,35.79451],[139.82738,35.79379],[139.8222,35.79586],[139.8203,35.79787],[139.81959,35.79947],[139.82026,35.80105],[139.82018,35.8028],[139.82078,35.8057],[139.82283,35.80938],[139.82506,35.81091],[139.82502,35.81208],[139.82322,35.81444],[139.82126,35.81503],[139.81986,35.8126],[139.82078,35.81131],[139.81948,35.81172],[139.8174,35.81002],[139.81489,35.80872],[139.81159,35.80817],[139.80356,35.80878],[139.80105,35.80788],[139.7999,35.80649],[139.79887,35.80656],[139.79767,35.80581],[139.79459,35.80524],[139.79224,35.80535],[139.78692,35.8066],[139.78359,35.80662],[139.78293,35.80722],[139.78083,35.80724],[139.77875,35.80895],[139.77245,35.81609],[139.77111,35.81707],[139.7698,35.81738],[139.76605,35.81718],[139.76527,35.81645],[139.76589,35.81587],[139.76517,35.81523],[139.75992,35.81214],[139.75706,35.81189],[139.75546,35.81266],[139.75491,35.81036],[139.75414,35.81096],[139.75432,35.81063],[139.75395,35.81036],[139.75297,35.81079],[139.75244,35.81053],[139.75205,35.8112],[139.75085,35.81037],[139.7504,35.80925],[139.75073,35.80875],[139.75061,35.80641],[139.75374,35.80436],[139.76058,35.79754],[139.75997,35.79484],[139.75524,35.79003],[139.75613,35.78859],[139.75557,35.78816],[139.75545,35.78729],[139.7537,35.78704],[139.75366,35.7863],[139.75134,35.78618],[139.75115,35.7865],[139.74961,35.78591],[139.74674,35.78673],[139.74647,35.78435],[139.74534,35.78312],[139.73804,35.78018],[139.73847,35.77864],[139.73811,35.77744],[139.73596,35.77369],[139.73569,35.77242],[139.73632,35.77046],[139.74639,35.76706],[139.75066,35.7673],[139.75852,35.76905],[139.75967,35.76746],[139.76016,35.7656],[139.74882,35.75988],[139.74821,35.75918],[139.74874,35.75742],[139.7513,35.75605],[139.76435,35.75402],[139.76953,35.75357],[139.78231,35.75407],[139.7888,35.75271],[139.78957,35.75234],[139.79144,35.74971],[139.79118,35.74898],[139.7888,35.74729],[139.78834,35.74615],[139.78888,35.74443],[139.79114,35.74167],[139.79266,35.7406],[139.79472,35.73987],[139.80233,35.73866],[139.81118,35.74123],[139.81301,35.74086],[139.8141,35.74026],[139.81446,35.73945],[139.81574,35.74007],[139.8179,35.74257],[139.8203,35.74351],[139.81748,35.74852],[139.81439,35.75242],[139.81513,35.75348],[139.81345,35.75455],[139.81335,35.75937]]]}},{"type":"Feature","bbox":[139.81345,35.71087,139.89446,35.79743],"properties":{"ku":"katsushika","name":"Katsushika-ku","name_local":"葛飾区","osm":1761718},"geometry":{"type":"Polygon","coordinates":[[[139.81552,35.75099],[139.81748,35.74852],[139.82537,35.73545],[139.85098,35.71087],[139.85471,35.7127],[139.85544,35.71395],[139.85624,35.71377],[139.85667,35.71427],[139.85812,35.71383],[139.85844,35.71416],[139.85869,35.71381],[139.8593,35.71427],[139.85986,35.71375],[139.86084,35.71445],[139.8624,35.71301],[139.86496,35.71325],[139.86667,35.7129],[139.86714,35.71201],[139.86776,35.71212],[139.86842,35.71322],[139.86839,35.71461],[139.86624,35.71858],[139.86719,35.71983],[139.86819,35.723],[139.86902,35.72342],[139.86869,35.72405],[139.87092,35.72475],[139.86997,35.72892],[139.87183,35.72956],[139.87221,35.73323],[139.87276,35.7339],[139.87241,35.73449],[139.87423,35.73604],[139.87383,35.73661],[139.87283,35.73663],[139.87281,35.73745],[139.87313,35.73762],[139.87377,35.73676],[139.87472,35.7366],[139.87509,35.73724],[139.87664,35.73695],[139.87683,35.73843],[139.87761,35.73948],[139.87701,35.73975],[139.87758,35.74023],[139.87682,35.74043],[139.87675,35.74104],[139.87811,35.74109],[139.8802,35.74032],[139.87978,35.74155],[139.88104,35.74197],[139.88095,35.7427],[139.88232,35.74337],[139.88205,35.74425],[139.88491,35.74552],[139.88507,35.74641],[139.88436,35.74646],[139.88386,35.74692],[139.88395,35.74739],[139.88288,35.7473],[139.88307,35.74825],[139.88037,35.74859],[139.88066,35.74969],[139.88277,35.74936],[139.88304,35.7499],[139.88483,35.75053],[139.88969,35.75121],[139.8832,35.75862],[139.88247,35.76258],[139.88079,35.76477],[139.87946,35.76752],[139.87984,35.76973],[139.88175,35.77286],[139.89341,35.77832],[139.89446,35.77992],[139.89433,35.78164],[139.89377,35.78275],[139.88758,35.78402],[139.88115,35.78198],[139.88047,35.78261],[139.877,35.78166],[139.87447,35.78225],[139.87385,35.78181],[139.87274,35.78224],[139.87116,35.78465],[139.87131,35.78838],[139.87357,35.79073],[139.87664,35.79263],[139.87757,35.79486],[139.8739,35.79714],[139.87184,35.79743],[139.86881,35.79697],[139.86371,35.79476],[139.85963,35.7953],[139.85902,35.79486],[139.85784,35.79211],[139.85606,35.79083],[139.85339,35.79167],[139.8491,35.79494],[139.84663,35.79621],[139.84466,35.79463],[139.84421,35.79285],[139.84527,35.78779],[139.84714,35.78353],[139.84958,35.77977],[139.85781,35.77064],[139.85862,35.76902],[139.85869,35.76753],[139.85818,35.7661],[139.85629,35.76418],[139.85402,35.76547],[139.85223,35.76563],[139.85127,35.7697],[139.84537,35.76932],[139.84357,35.7683],[139.84185,35.76633],[139.83796,35.766],[139.83757,35.76333],[139.83548,35.76311],[139.83236,35.76392],[139.83158,35.76375],[139.83069,35.76245],[139.83093,35.75881],[139.82951,35.75761],[139.82779,35.75737],[139.82557,35.75801],[139.82532,35.75928],[139.82597,35.76168],[139.82701,35.76217],[139.82415,35.76186],[139.8234,35.75583],[139.82293,35.7556],[139.82027,35.75594],[139.81982,35.7605],[139.81712,35.76011],[139.8169,35.76049],[139.81349,35.75946],[139.81345,35.75455],[139.81513,35.75348],[139.81439,35.75242],[139.81552,35.75099]]]}},{"type":"Feature","bbox":[139.79742,35.53083,139.91889,35.75121],"properties":{"ku":"edogawa","name":"Edogawa-ku","name_local":"江戸川区","osm":1761743},"geometry":{"type":"Polygon","coordinates":[[[139.84283,35.71901],[139.8392,35.7168],[139.83729,35.71792],[139.83499,35.71778],[139.8338,35.71685],[139.83312,35.71558],[139.83333,35.71453],[139.83453,35.71304],[139.83906,35.7111],[139.83979,35.7101],[139.83487,35.7059],[139.83437,35.70489],[139.83454,35.70419],[139.83677,35.70237],[139.84194,35.70045],[139.84467,35.69896],[139.84682,35.69647],[139.84801,35.69374],[139.84768,35.68859],[139.84602,35.68383],[139.84677,35.68299],[139.84564,35.68122],[139.84579,35.68072],[139.84854,35.67965],[139.84701,35.67505],[139.84573,35.6587],[139.84647,35.65438],[139.84464,35.63299],[139.84248,35.59153],[139.83476,35.60114],[139.79742,35.58099],[139.80297,35.57591],[139.85782,35.53083],[139.85784,35.60183],[139.86911,35.62199],[139.86969,35.63304],[139.87378,35.63983],[139.88349,35.64512],[139.8869,35.65373],[139.88738,35.65617],[139.88736,35.66792],[139.88553,35.67277],[139.88643,35.67857],[139.88794,35.67999],[139.89204,35.68164],[139.90378,35.68312],[139.90715,35.68438],[139.91385,35.69093],[139.91873,35.69771],[139.91889,35.69892],[139.91817,35.70188],[139.9167,35.70478],[139.91618,35.70801],[139.91343,35.71051],[139.90812,35.71386],[139.90478,35.71889],[139.89798,35.72429],[139.8972,35.72675],[139.89726,35.72928],[139.89793,35.73187],[139.90088,35.73746],[139.90068,35.74135],[139.89945,35.74439],[139.89855,35.74541],[139.89666,35.74671],[139.89287,35.74808],[139.88969,35.75121],[139.88483,35.75053],[139.88304,35.7499],[139.88277,35.74936],[139.88066,35.74969],[139.88037,35.74859],[139.88307,35.74825],[139.88288,35.7473],[139.88395,35.74739],[139.88386,35.74692],[139.88436,35.74646],[139.88507,35.74641],[139.88491,35.74552],[139.88205,35.74425],[139.88232,35.74337],[139.88095,35.7427],[139.88104,35.74197],[139.87978,35.74155],[139.8802,35.74032],[139.87811,35.74109],[139.87675,35.74104],[139.87682,35.74043],[139.87758,35.74023],[139.87701,35.73975],[139.87761,35.73948],[139.87683,35.73843],[139.87664,35.73695],[139.87509,35.73724],[139.87472,35.7366],[139.87377,35.73676],[139.87313,35.73762],[139.87281,35.73745],[139.87283,35.73663],[139.87383,35.73661],[139.87423,35.73604],[139.87241,35.73449],[139.87276,35.7339],[139.87221,35.73323],[139.87183,35.72956],[139.86997,35.72892],[139.87092,35.72475],[139.86869,35.72405],[139.86902,35.72342],[139.86819,35.723],[139.86719,35.71983],[139.86624,35.71858],[139.86839,35.71461],[139.86842,35.71322],[139.86776,35.71212],[139.86714,35.71201],[139.86667,35.7129],[139.86496,35.71325],[139.8624,35.71301],[139.86084,35.71445],[139.85986,35.71375],[139.8593,35.71427],[139.85869,35.71381],[139.85844,35.71416],[139.85812,35.71383],[139.85667,35.71427],[139.85624,35.71377],[139.85544,35.71395],[139.85471,35.7127],[139.85098,35.71087],[139.84283,35.71901]]]}}]}